{"type": "FeatureCollection", "features": [ {"type": "Feature", "properties": {"norad_id": 38552, "name": "METEOSAT-10 (MSG-3)", "group": "weather", "lat": 0.6251115218684964, "lon": 69.84228457221288, "alt_km": 35785.02264991665, "timestamp": "2025-12-20T22:39:10.291925+00:00", "meta": {"OBJECT_NAME": "METEOSAT-10 (MSG-3)", "OBJECT_ID": "2012-035B", "EPOCH": "2025-12-19T08:07:49.924128", "MEAN_MOTION": 1.00276524, "ECCENTRICITY": 6.93e-05, "INCLINATION": 4.2433, "RA_OF_ASC_NODE": 61.706, "ARG_OF_PERICENTER": 270.066, "MEAN_ANOMALY": 238.6463, "EPHEMERIS_TYPE": 0, "CLASSIFICATION_TYPE": "U", "NORAD_CAT_ID": 38552, "ELEMENT_SET_NO": 999, "REV_AT_EPOCH": 4905, "BSTAR": 0, "MEAN_MOTION_DOT": 1.7e-07, "MEAN_MOTION_DDOT": 0}, "tle": {"line1": "1 38552U 12035B   25353.33877227  .00000017  00000+0  00000+0 0  9997", "line2": "2 38552   4.2433  61.7060 0000693 270.0660 238.6463  1.00276524 49057"}}, "geometry": {"type": "Point", "coordinates": [69.84228457221288, 0.6251115218684964]}}, {"type": "Feature", "properties": {"norad_id": 38771, "name": "METOP-B", "group": "weather", "lat": -72.52072467832966, "lon": 73.77829254148298, "alt_km": 829.9905818303478, "timestamp": "2025-12-20T22:39:10.291937+00:00", "meta": {"OBJECT_NAME": "METOP-B", "OBJECT_ID": "2012-049A", "EPOCH": "2025-12-20T09:29:20.413824", "MEAN_MOTION": 14.21411074, "ECCENTRICITY": 0.00031689, "INCLINATION": 98.6788, "RA_OF_ASC_NODE": 44.224, "ARG_OF_PERICENTER": 127.8979, "MEAN_ANOMALY": 232.2486, "EPHEMERIS_TYPE": 0, "CLASSIFICATION_TYPE": "U", "NORAD_CAT_ID": 38771, "ELEMENT_SET_NO": 999, "REV_AT_EPOCH": 68786, "BSTAR": 6.55584e-05, "MEAN_MOTION_DOT": 1e-06, "MEAN_MOTION_DDOT": 0}, "tle": {"line1": "1 38771U 12049A   25354.39537516  .00000100  00000+0  65558-4 0  9993", "line2": "2 38771  98.6788  44.2240 0003168 127.8979 232.2486 14.21411074687868"}}, "geometry": {"type": "Point", "coordinates": [73.77829254148298, -72.52072467832966]}}, {"type": "Feature", "properties": {"norad_id": 39216, "name": "INSAT-3D", "group": "weather", "lat": 1.328484859319023, "lon": -160.96779560649694, "alt_km": 35778.55442626029, "timestamp": "2025-12-20T22:39:10.291952+00:00", "meta": {"OBJECT_NAME": "INSAT-3D", "OBJECT_ID": "2013-038B", "EPOCH": "2025-12-20T12:07:59.913120", "MEAN_MOTION": 1.00277127, "ECCENTRICITY": 0.00017905, "INCLINATION": 1.4638, "RA_OF_ASC_NODE": 84.911, "ARG_OF_PERICENTER": 152.3239, "MEAN_ANOMALY": 163.5758, "EPHEMERIS_TYPE": 0, "CLASSIFICATION_TYPE": "U", "NORAD_CAT_ID": 39216, "ELEMENT_SET_NO": 999, "REV_AT_EPOCH": 4528, "BSTAR": 0, "MEAN_MOTION_DOT": -3.16e-06, "MEAN_MOTION_DDOT": 0}, "tle": {"line1": "1 39216U 13038B   25354.50555455 -.00000316  00000+0  00000+0 0  9998", "line2": "2 39216   1.4638  84.9110 0001790 152.3239 163.5758  1.00277127 45281"}}, "geometry": {"type": "Point", "coordinates": [-160.96779560649694, 1.328484859319023]}}, {"type": "Feature", "properties": {"norad_id": 39260, "name": "FENGYUN 3C", "group": "weather", "lat": 3.4399699685584215, "lon": -28.29066357854655, "alt_km": 852.8071048394186, "timestamp": "2025-12-20T22:39:10.291966+00:00", "meta": {"OBJECT_NAME": "FENGYUN 3C", "OBJECT_ID": "2013-052A", "EPOCH": "2025-12-20T14:09:18.868608", "MEAN_MOTION": 14.15698518, "ECCENTRICITY": 0.00147197, "INCLINATION": 98.4771, "RA_OF_ASC_NODE": 331.8862, "ARG_OF_PERICENTER": 173.1659, "MEAN_ANOMALY": 186.9719, "EPHEMERIS_TYPE": 0, "CLASSIFICATION_TYPE": "U", "NORAD_CAT_ID": 39260, "ELEMENT_SET_NO": 999, "REV_AT_EPOCH": 63329, "BSTAR": 4.2099548e-05, "MEAN_MOTION_DOT": 4.1e-07, "MEAN_MOTION_DDOT": 0}, "tle": {"line1": "1 39260U 13052A   25354.58980172  .00000041  00000+0  42100-4 0  9995", "line2": "2 39260  98.4771 331.8862 0014719 173.1659 186.9719 14.15698518633295"}}, "geometry": {"type": "Point", "coordinates": [-28.29066357854655, 3.4399699685584215]}}, {"type": "Feature", "properties": {"norad_id": 40069, "name": "METEOR-M 2", "group": "weather", "lat": 26.78567278411469, "lon": 156.53826370735433, "alt_km": 816.2729492711051, "timestamp": "2025-12-20T22:39:10.291976+00:00", "meta": {"OBJECT_NAME": "METEOR-M 2", "OBJECT_ID": "2014-037A", "EPOCH": "2025-12-20T13:29:20.247360", "MEAN_MOTION": 14.21389908, "ECCENTRICITY": 0.00053766, "INCLINATION": 98.4901, "RA_OF_ASC_NODE": 331.8466, "ARG_OF_PERICENTER": 185.0281, "MEAN_ANOMALY": 175.0844, "EPHEMERIS_TYPE": 0, "CLASSIFICATION_TYPE": "U", "NORAD_CAT_ID": 40069, "ELEMENT_SET_NO": 999, "REV_AT_EPOCH": 59394, "BSTAR": 0.00014851454, "MEAN_MOTION_DOT": 2.82e-06, "MEAN_MOTION_DDOT": 0}, "tle": {"line1": "1 40069U 14037A   25354.56203990  .00000282  00000+0  14851-3 0  9990", "line2": "2 40069  98.4901 331.8466 0005376 185.0281 175.0844 14.21389908593943"}}, "geometry": {"type": "Point", "coordinates": [156.53826370735433, 26.78567278411469]}}, {"type": "Feature", "properties": {"norad_id": 40267, "name": "HIMAWARI-8", "group": "weather", "lat": 0.0034353855813804993, "lon": -149.78857756295966, "alt_km": 35786.027510407905, "timestamp": "2025-12-20T22:39:10.291986+00:00", "meta": {"OBJECT_NAME": "HIMAWARI-8", "OBJECT_ID": "2014-060A", "EPOCH": "2025-12-20T13:45:38.596032", "MEAN_MOTION": 1.00271023, "ECCENTRICITY": 8.7e-05, "INCLINATION": 0.0392, "RA_OF_ASC_NODE": 138.1076, "ARG_OF_PERICENTER": 157.5207, "MEAN_ANOMALY": 140.8559, "EPHEMERIS_TYPE": 0, "CLASSIFICATION_TYPE": "U", "NORAD_CAT_ID": 40267, "ELEMENT_SET_NO": 999, "REV_AT_EPOCH": 4096, "BSTAR": 0, "MEAN_MOTION_DOT": -2.52e-06, "MEAN_MOTION_DDOT": 0}, "tle": {"line1": "1 40267U 14060A   25354.57336338 -.00000252  00000+0  00000+0 0  9995", "line2": "2 40267   0.0392 138.1076 0000870 157.5207 140.8559  1.00271023 40960"}}, "geometry": {"type": "Point", "coordinates": [-149.78857756295966, 0.0034353855813804993]}}, {"type": "Feature", "properties": {"norad_id": 40367, "name": "FENGYUN 2G", "group": "weather", "lat": 5.1860810551796, "lon": 168.81079546896146, "alt_km": 35792.10875085822, "timestamp": "2025-12-20T22:39:10.291997+00:00", "meta": {"OBJECT_NAME": "FENGYUN 2G", "OBJECT_ID": "2014-090A", "EPOCH": "2025-12-20T15:39:42.836832", "MEAN_MOTION": 1.00261254, "ECCENTRICITY": 0.00026778, "INCLINATION": 5.1873, "RA_OF_ASC_NODE": 75.0072, "ARG_OF_PERICENTER": 202.9642, "MEAN_ANOMALY": 145.7137, "EPHEMERIS_TYPE": 0, "CLASSIFICATION_TYPE": "U", "NORAD_CAT_ID": 40367, "ELEMENT_SET_NO": 999, "REV_AT_EPOCH": 4020, "BSTAR": 0, "MEAN_MOTION_DOT": -2.79e-06, "MEAN_MOTION_DDOT": 0}, "tle": {"line1": "1 40367U 14090A   25354.65257913 -.00000279  00000+0  00000+0 0  9998", "line2": "2 40367   5.1873  75.0072 0002677 202.9642 145.7137  1.00261254 40209"}}, "geometry": {"type": "Point", "coordinates": [168.81079546896146, 5.1860810551796]}}, {"type": "Feature", "properties": {"norad_id": 40732, "name": "METEOSAT-11 (MSG-4)", "group": "weather", "lat": 0.35062926015006524, "lon": 78.73923874053094, "alt_km": 35788.78735973694, "timestamp": "2025-12-20T22:39:10.292008+00:00", "meta": {"OBJECT_NAME": "METEOSAT-11 (MSG-4)", "OBJECT_ID": "2015-034A", "EPOCH": "2025-12-20T06:25:40.200960", "MEAN_MOTION": 1.00269846, "ECCENTRICITY": 8.427e-05, "INCLINATION": 2.7549, "RA_OF_ASC_NODE": 71.982, "ARG_OF_PERICENTER": 136.1549, "MEAN_ANOMALY": 346.5872, "EPHEMERIS_TYPE": 0, "CLASSIFICATION_TYPE": "U", "NORAD_CAT_ID": 40732, "ELEMENT_SET_NO": 999, "REV_AT_EPOCH": 542, "BSTAR": 0, "MEAN_MOTION_DOT": 8.3e-07, "MEAN_MOTION_DDOT": 0}, "tle": {"line1": "1 40732U 15034A   25354.26782640  .00000083  00000+0  00000+0 0  9992", "line2": "2 40732   2.7549  71.9820 0000842 136.1549 346.5872  1.00269846  5427"}}, "geometry": {"type": "Point", "coordinates": [78.73923874053094, 0.35062926015006524]}}, {"type": "Feature", "properties": {"norad_id": 41105, "name": "ELEKTRO-L 2", "group": "weather", "lat": -1.8692319610457635, "lon": 55.211466041879135, "alt_km": 35796.3247331554, "timestamp": "2025-12-20T22:39:10.292020+00:00", "meta": {"OBJECT_NAME": "ELEKTRO-L 2", "OBJECT_ID": "2015-074A", "EPOCH": "2025-12-20T01:10:35.962176", "MEAN_MOTION": 1.00272605, "ECCENTRICITY": 0.00035244, "INCLINATION": 6.243, "RA_OF_ASC_NODE": 72.7416, "ARG_OF_PERICENTER": 209.3855, "MEAN_ANOMALY": 169.9333, "EPHEMERIS_TYPE": 0, "CLASSIFICATION_TYPE": "U", "NORAD_CAT_ID": 41105, "ELEMENT_SET_NO": 999, "REV_AT_EPOCH": 3671, "BSTAR": 0, "MEAN_MOTION_DOT": -9.8e-07, "MEAN_MOTION_DDOT": 0}, "tle": {"line1": "1 41105U 15074A   25354.04902734 -.00000098  00000+0  00000+0 0  9992", "line2": "2 41105   6.2430  72.7416 0003524 209.3855 169.9333  1.00272605 36715"}}, "geometry": {"type": "Point", "coordinates": [55.211466041879135, -1.8692319610457635]}}, {"type": "Feature", "properties": {"norad_id": 41752, "name": "INSAT-3DR", "group": "weather", "lat": 0.10634483445588275, "lon": 143.41528262321748, "alt_km": 35823.08107623198, "timestamp": "2025-12-20T22:39:10.292031+00:00", "meta": {"OBJECT_NAME": "INSAT-3DR", "OBJECT_ID": "2016-054A", "EPOCH": "2025-12-20T13:34:59.082240", "MEAN_MOTION": 1.00271597, "ECCENTRICITY": 0.00141301, "INCLINATION": 0.1108, "RA_OF_ASC_NODE": 86.372, "ARG_OF_PERICENTER": 185.2291, "MEAN_ANOMALY": 95.5322, "EPHEMERIS_TYPE": 0, "CLASSIFICATION_TYPE": "U", "NORAD_CAT_ID": 41752, "ELEMENT_SET_NO": 999, "REV_AT_EPOCH": 3402, "BSTAR": 0, "MEAN_MOTION_DOT": -5.3e-07, "MEAN_MOTION_DDOT": 0}, "tle": {"line1": "1 41752U 16054A   25354.56596160 -.00000053  00000+0  00000+0 0  9999", "line2": "2 41752   0.1108  86.3720 0014130 185.2291  95.5322  1.00271597 34021"}}, "geometry": {"type": "Point", "coordinates": [143.41528262321748, 0.10634483445588275]}}]}